{
  "links" : {
    "next" : "https://api.nasa.gov/neo/rest/v1/feed?start_date=2007-05-16&end_date=2007-05-16&detailed=true&api_key=t0TVs3DtDT2H8Oy2Zy8m2eVrNsAVKAexjcZXUckd",
    "prev" : "https://api.nasa.gov/neo/rest/v1/feed?start_date=2007-05-14&end_date=2007-05-14&detailed=true&api_key=t0TVs3DtDT2H8Oy2Zy8m2eVrNsAVKAexjcZXUckd",
    "self" : "https://api.nasa.gov/neo/rest/v1/feed?start_date=2007-05-15&end_date=2007-05-15&detailed=true&api_key=t0TVs3DtDT2H8Oy2Zy8m2eVrNsAVKAexjcZXUckd"
  },
  "element_count" : 5,
  "near_earth_objects" : {
    "2007-05-15" : [ {
      "links" : {
        "self" : "https://api.nasa.gov/neo/rest/v1/neo/3741556?api_key=t0TVs3DtDT2H8Oy2Zy8m2eVrNsAVKAexjcZXUckd"
      },
      "neo_reference_id" : "3741556",
      "name" : "(2016 BR80)",
      "nasa_jpl_url" : "http://ssd.jpl.nasa.gov/sbdb.cgi?sstr=3741556",
      "absolute_magnitude_h" : 21.3,
      "estimated_diameter" : {
        "kilometers" : {
          "estimated_diameter_min" : 0.1460679643,
          "estimated_diameter_max" : 0.3266178974
        },
        "meters" : {
          "estimated_diameter_min" : 146.0679642714,
          "estimated_diameter_max" : 326.6178974458
        },
        "miles" : {
          "estimated_diameter_min" : 0.090762397,
          "estimated_diameter_max" : 0.2029508896
        },
        "feet" : {
          "estimated_diameter_min" : 479.2256199,
          "estimated_diameter_max" : 1071.581062656
        }
      },
      "is_potentially_hazardous_asteroid" : true,
      "close_approach_data" : [ {
        "close_approach_date" : "2007-05-15",
        "epoch_date_close_approach" : 1179212400000,
        "relative_velocity" : {
          "kilometers_per_second" : "19.9673240402",
          "kilometers_per_hour" : "71882.3665447484",
          "miles_per_hour" : "44664.9071455411"
        },
        "miss_distance" : {
          "astronomical" : "0.382945516",
          "lunar" : "148.9658050537",
          "kilometers" : "57287832",
          "miles" : "35597008"
        },
        "orbiting_body" : "Earth"
      } ],
      "orbital_data" : {
        "orbit_id" : "13",
        "orbit_determination_date" : "2017-08-10 06:19:42",
        "orbit_uncertainty" : "5",
        "minimum_orbit_intersection" : ".0427367",
        "jupiter_tisserand_invariant" : "4.053",
        "epoch_osculation" : "2458000.5",
        "eccentricity" : ".4523207253538421",
        "semi_major_axis" : "1.70299590939779",
        "inclination" : "12.06866944543857",
        "ascending_node_longitude" : "8.788946167322639",
        "orbital_period" : "811.7435267883536",
        "perihelion_distance" : ".9326955643843559",
        "perihelion_argument" : "160.495989428116",
        "aphelion_distance" : "2.473296254411225",
        "perihelion_time" : "2458260.253455029182",
        "mean_anomaly" : "244.801983970872",
        "mean_motion" : ".4434898316027631",
        "equinox" : "J2000"
      }
    }, {
      "links" : {
        "self" : "https://api.nasa.gov/neo/rest/v1/neo/3137864?api_key=t0TVs3DtDT2H8Oy2Zy8m2eVrNsAVKAexjcZXUckd"
      },
      "neo_reference_id" : "3137864",
      "name" : "(2002 TS69)",
      "nasa_jpl_url" : "http://ssd.jpl.nasa.gov/sbdb.cgi?sstr=3137864",
      "absolute_magnitude_h" : 24.4,
      "estimated_diameter" : {
        "kilometers" : {
          "estimated_diameter_min" : 0.0350392641,
          "estimated_diameter_max" : 0.0783501764
        },
        "meters" : {
          "estimated_diameter_min" : 35.0392641108,
          "estimated_diameter_max" : 78.3501764334
        },
        "miles" : {
          "estimated_diameter_min" : 0.0217723826,
          "estimated_diameter_max" : 0.0486845275
        },
        "feet" : {
          "estimated_diameter_min" : 114.9582192654,
          "estimated_diameter_max" : 257.0543928497
        }
      },
      "is_potentially_hazardous_asteroid" : false,
      "close_approach_data" : [ {
        "close_approach_date" : "2007-05-15",
        "epoch_date_close_approach" : 1179212400000,
        "relative_velocity" : {
          "kilometers_per_second" : "6.2430143772",
          "kilometers_per_hour" : "22474.8517579763",
          "miles_per_hour" : "13964.9988603937"
        },
        "miss_distance" : {
          "astronomical" : "0.3224777423",
          "lunar" : "125.4438400269",
          "kilometers" : "48241980",
          "miles" : "29976178"
        },
        "orbiting_body" : "Earth"
      } ],
      "orbital_data" : {
        "orbit_id" : "14",
        "orbit_determination_date" : "2017-04-06 09:14:43",
        "orbit_uncertainty" : "0",
        "minimum_orbit_intersection" : ".0301788",
        "jupiter_tisserand_invariant" : "5.356",
        "epoch_osculation" : "2458000.5",
        "eccentricity" : ".1302578977439573",
        "semi_major_axis" : "1.176432673709761",
        "inclination" : "8.454072901921307",
        "ascending_node_longitude" : "200.6528191834383",
        "orbital_period" : "466.0677405220859",
        "perihelion_distance" : "1.023193026795024",
        "perihelion_argument" : "195.4677965983724",
        "aphelion_distance" : "1.329672320624497",
        "perihelion_time" : "2458166.157889305331",
        "mean_anomaly" : "232.0425488296732",
        "mean_motion" : ".7724199053054616",
        "equinox" : "J2000"
      }
    } ]
  }
}